CTC2_L_00368001-01
1 62399U 22613BC  26037.47795139  .00000000  00000+0  00000-0 0  9995
2 62399  60.0000   0.0000 0000000   0.0000   0.0000 13.16009617    12
CTC2_L_00368001-02
1 62400U 22462VD  26037.47795139  .00000000  00000+0  00000-0 0  9990
2 62400  60.0000   0.0000 0000000   0.0000  90.0000 13.16009617    14
CTC2_L_00368001-03
1 62401U 22337GN  26037.47795139  .00000000  00000+0  00000-0 0  9992
2 62401  60.0000   0.0000 0000000   0.0000 180.0000 13.16009617    15
CTC2_L_00368001-04
1 62402U 23542KZ  26037.47795139  .00000000  00000+0  00000-0 0  9992
2 62402  60.0000   0.0000 0000000   0.0000 270.0000 13.16009617    16
CTC2_L_00368002-01
1 62403U 25764VM  26037.47795139  .00000000  00000+0  00000-0 0  9991
2 62403  60.0000  12.0000 0000000   0.0000  12.0000 13.16009617    14
CTC2_L_00368002-02
1 62404U 22880UK  26037.47795139  .00000000  00000+0  00000-0 0  9998
2 62404  60.0000  12.0000 0000000   0.0000 102.0000 13.16009617    15
CTC2_L_00368002-03
1 62405U 25109DH  26037.47795139  .00000000  00000+0  00000-0 0  9996
2 62405  60.0000  12.0000 0000000   0.0000 192.0000 13.16009617    15
CTC2_L_00368002-04
1 62406U 22079VL  26037.47795139  .00000000  00000+0  00000-0 0  9990
2 62406  60.0000  12.0000 0000000   0.0000 282.0000 13.16009617    16
CTC2_L_00368003-01
1 62407U 24112H   26037.47795139  .00000000  00000+0  00000-0 0  9991
2 62407  60.0000  24.0000 0000000   0.0000  24.0000 13.16009617    14
CTC2_L_00368003-02
1 62408U 22163QP  26037.47795139  .00000000  00000+0  00000-0 0  9996
2 62408  60.0000  24.0000 0000000   0.0000 114.0000 13.16009617    15
CTC2_L_00368003-03
1 62409U 25387YO  26037.47795139  .00000000  00000+0  00000-0 0  9998
2 62409  60.0000  24.0000 0000000   0.0000 204.0000 13.16009617    16
CTC2_L_00368003-04
1 62410U 25092TU  26037.47795139  .00000000  00000+0  00000-0 0  9993
2 62410  60.0000  24.0000 0000000   0.0000 294.0000 13.16009617    17
CTC2_L_00368004-01
1 62411U 22646YM  26037.47795139  .00000000  00000+0  00000-0 0  9996
2 62411  60.0000  36.0000 0000000   0.0000  36.0000 13.16009617    15
CTC2_L_00368004-02
1 62412U 25997ZI  26037.47795139  .00000000  00000+0  00000-0 0  9999
2 62412  60.0000  36.0000 0000000   0.0000 126.0000 13.16009617    16
CTC2_L_00368004-03
1 62413U 26902WQ  26037.47795139  .00000000  00000+0  00000-0 0  9997
2 62413  60.0000  36.0000 0000000   0.0000 216.0000 13.16009617    17
CTC2_L_00368004-04
1 62414U 25062PT  26037.47795139  .00000000  00000+0  00000-0 0  9994
2 62414  60.0000  36.0000 0000000   0.0000 306.0000 13.16009617    18
CTC2_L_00368005-01
1 62415U 24990IP  26037.47795139  .00000000  00000+0  00000-0 0  9994
2 62415  60.0000  48.0000 0000000   0.0000  48.0000 13.16009617    15
CTC2_L_00368005-02
1 62416U 22315AA  26037.47795139  .00000000  00000+0  00000-0 0  9994
2 62416  60.0000  48.0000 0000000   0.0000 138.0000 13.16009617    16
CTC2_L_00368005-03
1 62417U 22347YD  26037.47795139  .00000000  00000+0  00000-0 0  9990
2 62417  60.0000  48.0000 0000000   0.0000 228.0000 13.16009617    17
CTC2_L_00368005-04
1 62418U 26350IT  26037.47795139  .00000000  00000+0  00000-0 0  9999
2 62418  60.0000  48.0000 0000000   0.0000 318.0000 13.16009617    18
CTC2_L_00368006-01
1 62419U 25914BI  26037.47795139  .00000000  00000+0  00000-0 0  9995
2 62419  60.0000  60.0000 0000000   0.0000  60.0000 13.16009617    17
CTC2_L_00368006-02
1 62420U 23901ML  26037.47795139  .00000000  00000+0  00000-0 0  9991
2 62420  60.0000  60.0000 0000000   0.0000 150.0000 13.16009617    19
CTC2_L_00368006-03
1 62421U 24600MC  26037.47795139  .00000000  00000+0  00000-0 0  9999
2 62421  60.0000  60.0000 0000000   0.0000 240.0000 13.16009617    10
CTC2_L_00368006-04
1 62422U 23799QK  26037.47795139  .00000000  00000+0  00000-0 0  9998
2 62422  60.0000  60.0000 0000000   0.0000 330.0000 13.16009617    11
CTC2_L_00368007-01
1 62423U 22778RU  26037.47795139  .00000000  00000+0  00000-0 0  9995
2 62423  60.0000  72.0000 0000000   0.0000  72.0000 13.16009617    18
CTC2_L_00368007-02
1 62424U 23053XA  26037.47795139  .00000000  00000+0  00000-0 0  9993
2 62424  60.0000  72.0000 0000000   0.0000 162.0000 13.16009617    19
CTC2_L_00368007-03
1 62425U 22172ZN  26037.47795139  .00000000  00000+0  00000-0 0  9995
2 62425  60.0000  72.0000 0000000   0.0000 252.0000 13.16009617    10
CTC2_L_00368007-04
1 62426U 22997SQ  26037.47795139  .00000000  00000+0  00000-0 0  9991
2 62426  60.0000  72.0000 0000000   0.0000 342.0000 13.16009617    11
CTC2_L_00368008-01
1 62427U 25390LK  26037.47795139  .00000000  00000+0  00000-0 0  9992
2 62427  60.0000  84.0000 0000000   0.0000  84.0000 13.16009617    18
CTC2_L_00368008-02
1 62428U 23976IA  26037.47795139  .00000000  00000+0  00000-0 0  9991
2 62428  60.0000  84.0000 0000000   0.0000 174.0000 13.16009617    19
CTC2_L_00368008-03
1 62429U 23708AI  26037.47795139  .00000000  00000+0  00000-0 0  9995
2 62429  60.0000  84.0000 0000000   0.0000 264.0000 13.16009617    10
CTC2_L_00368008-04
1 62430U 22053FE  26037.47795139  .00000000  00000+0  00000-0 0  9999
2 62430  60.0000  84.0000 0000000   0.0000 354.0000 13.16009617    12
CTC2_L_00368009-01
1 62431U 26677EA  26037.47795139  .00000000  00000+0  00000-0 0  9996
2 62431  60.0000  96.0000 0000000   0.0000  96.0000 13.16009617    19
CTC2_L_00368009-02
1 62432U 25360EU  26037.47795139  .00000000  00000+0  00000-0 0  9995
2 62432  60.0000  96.0000 0000000   0.0000 186.0000 13.16009617    10
CTC2_L_00368009-03
1 62433U 24889AH  26037.47795139  .00000000  00000+0  00000-0 0  9991
2 62433  60.0000  96.0000 0000000   0.0000 276.0000 13.16009617    11
CTC2_L_00368009-04
1 62434U 26220HU  26037.47795139  .00000000  00000+0  00000-0 0  9993
2 62434  60.0000  96.0000 0000000   0.0000   6.0000 13.16009617    13
CTC2_L_00368010-01
1 62435U 25615WT  26037.47795139  .00000000  00000+0  00000-0 0  9991
2 62435  60.0000 108.0000 0000000   0.0000 108.0000 13.16009617    11
CTC2_L_00368010-02
1 62436U 26186QN  26037.47795139  .00000000  00000+0  00000-0 0  9996
2 62436  60.0000 108.0000 0000000   0.0000 198.0000 13.16009617    11
CTC2_L_00368010-03
1 62437U 23291TE  26037.47795139  .00000000  00000+0  00000-0 0  9991
2 62437  60.0000 108.0000 0000000   0.0000 288.0000 13.16009617    12
CTC2_L_00368010-04
1 62438U 26771CE  26037.47795139  .00000000  00000+0  00000-0 0  9998
2 62438  60.0000 108.0000 0000000   0.0000  18.0000 13.16009617    14
CTC2_L_00368011-01
1 62439U 23177OE  26037.47795139  .00000000  00000+0  00000-0 0  9996
2 62439  60.0000 120.0000 0000000   0.0000 120.0000 13.16009617    13
CTC2_L_00368011-02
1 62440U 24152AF  26037.47795139  .00000000  00000+0  00000-0 0  9992
2 62440  60.0000 120.0000 0000000   0.0000 210.0000 13.16009617    15
CTC2_L_00368011-03
1 62441U 26118KD  26037.47795139  .00000000  00000+0  00000-0 0  9997
2 62441  60.0000 120.0000 0000000   0.0000 300.0000 13.16009617    16
CTC2_L_00368011-04
1 62442U 24410RG  26037.47795139  .00000000  00000+0  00000-0 0  9991
2 62442  60.0000 120.0000 0000000   0.0000  30.0000 13.16009617    17
CTC2_L_00368012-01
1 62443U 25982JU  26037.47795139  .00000000  00000+0  00000-0 0  9997
2 62443  60.0000 132.0000 0000000   0.0000 132.0000 13.16009617    14
CTC2_L_00368012-02
1 62444U 22450QS  26037.47795139  .00000000  00000+0  00000-0 0  9995
2 62444  60.0000 132.0000 0000000   0.0000 222.0000 13.16009617    15
CTC2_L_00368012-03
1 62445U 23027TI  26037.47795139  .00000000  00000+0  00000-0 0  9997
2 62445  60.0000 132.0000 0000000   0.0000 312.0000 13.16009617    16
CTC2_L_00368012-04
1 62446U 26306RB  26037.47795139  .00000000  00000+0  00000-0 0  9991
2 62446  60.0000 132.0000 0000000   0.0000  42.0000 13.16009617    17
CTC2_L_00368013-01
1 62447U 26642N   26037.47795139  .00000000  00000+0  00000-0 0  9995
2 62447  60.0000 144.0000 0000000   0.0000 144.0000 13.16009617    14
CTC2_L_00368013-02
1 62448U 22992TS  26037.47795139  .00000000  00000+0  00000-0 0  9990
2 62448  60.0000 144.0000 0000000   0.0000 234.0000 13.16009617    15
CTC2_L_00368013-03
1 62449U 23989WU  26037.47795139  .00000000  00000+0  00000-0 0  9998
2 62449  60.0000 144.0000 0000000   0.0000 324.0000 13.16009617    16
CTC2_L_00368013-04
1 62450U 23884YF  26037.47795139  .00000000  00000+0  00000-0 0  9994
2 62450  60.0000 144.0000 0000000   0.0000  54.0000 13.16009617    18
CTC2_L_00368014-01
1 62451U 22360ER  26037.47795139  .00000000  00000+0  00000-0 0  9993
2 62451  60.0000 156.0000 0000000   0.0000 156.0000 13.16009617    15
CTC2_L_00368014-02
1 62452U 25226RB  26037.47795139  .00000000  00000+0  00000-0 0  9998
2 62452  60.0000 156.0000 0000000   0.0000 246.0000 13.16009617    16
CTC2_L_00368014-03
1 62453U 22664JL  26037.47795139  .00000000  00000+0  00000-0 0  9992
2 62453  60.0000 156.0000 0000000   0.0000 336.0000 13.16009617    17
CTC2_L_00368014-04
1 62454U 24604VP  26037.47795139  .00000000  00000+0  00000-0 0  9999
2 62454  60.0000 156.0000 0000000   0.0000  66.0000 13.16009617    18
CTC2_L_00368015-01
1 62455U 22047UQ  26037.47795139  .00000000  00000+0  00000-0 0  9999
2 62455  60.0000 168.0000 0000000   0.0000 168.0000 13.16009617    15
CTC2_L_00368015-02
1 62456U 26403YS  26037.47795139  .00000000  00000+0  00000-0 0  9990
2 62456  60.0000 168.0000 0000000   0.0000 258.0000 13.16009617    16
CTC2_L_00368015-03
1 62457U 26955SP  26037.47795139  .00000000  00000+0  00000-0 0  9993
2 62457  60.0000 168.0000 0000000   0.0000 348.0000 13.16009617    17
CTC2_L_00368015-04
1 62458U 22769VC  26037.47795139  .00000000  00000+0  00000-0 0  9993
2 62458  60.0000 168.0000 0000000   0.0000  78.0000 13.16009617    18
CTC2_L_00368016-01
1 62459U 26645ZK  26037.47795139  .00000000  00000+0  00000-0 0  9991
2 62459  60.0000 180.0000 0000000   0.0000 180.0000 13.16009617    17
CTC2_L_00368016-02
1 62460U 26637ZL  26037.47795139  .00000000  00000+0  00000-0 0  9994
2 62460  60.0000 180.0000 0000000   0.0000 270.0000 13.16009617    19
